[{"OBJECT_NAME":"KHALIFASAT","OBJECT_ID":"2018-084F","EPOCH":"2026-03-09T22:37:07.705056","MEAN_MOTION":15.0097364,"ECCENTRICITY":0.00062701,"INCLINATION":98.0864,"RA_OF_ASC_NODE":247.4233,"ARG_OF_PERICENTER":83.8573,"MEAN_ANOMALY":276.3364,"EPHEMERIS_TYPE":0,"CLASSIFICATION_TYPE":"U","NORAD_CAT_ID":43676,"ELEMENT_SET_NO":999,"REV_AT_EPOCH":40088,"BSTAR":0.00043724412,"MEAN_MOTION_DOT":5.516e-5,"MEAN_MOTION_DDOT":0},{"OBJECT_NAME":"STARLINK-6084","OBJECT_ID":"2023-046U","EPOCH":"2026-03-09T22:32:44.656800","MEAN_MOTION":15.02533583,"ECCENTRICITY":0.0001231,"INCLINATION":43.0002,"RA_OF_ASC_NODE":157.2391,"ARG_OF_PERICENTER":271.488,"MEAN_ANOMALY":88.5821,"EPHEMERIS_TYPE":0,"CLASSIFICATION_TYPE":"U","NORAD_CAT_ID":56111,"ELEMENT_SET_NO":999,"REV_AT_EPOCH":16210,"BSTAR":-0.00012692478,"MEAN_MOTION_DOT":-1.918e-5,"MEAN_MOTION_DDOT":0}]
